HST                     
1 20580U 90037B   21217.95207838  .00000546  00000-0  22020-4 0  9994
2 20580  28.4700  97.5480 0002576 233.5122 146.2520 15.09697998518501
POLAR                   
1 23802U 96013A   21216.49480221  .00000309  00000-0  00000-0 0  9998
2 23802  78.7158 244.9065 5979492 269.5935  26.1763  1.29847078121776
SWAS                    
1 25560U 98071A   21218.30157002  .00000167  00000-0  24062-4 0  9997
2 25560  69.8984  59.7021 0005244  67.3244 292.8466 14.94112450230945
CXO                     
1 25867U 99040B   21221.00186508  .00000622  00000-0  00000-0 0  9996
2 25867  53.8446 253.0842 8405269 226.8084   0.4045  0.37808062 10635
XMM-NEWTON              
1 25989U 99066A   21220.37641174  .00000238  00000-0  00000-0 0  9996
2 25989  70.7306 310.9746 6502422  89.9464   0.2744  0.50137207 14118
TERRA                   
1 25994U 99068A   21218.22099962  .00000049  00000-0  20770-4 0  9997
2 25994  98.1739 291.7284 0001306  99.7371 335.1767 14.57129128150599
CLUSTER II-FM7 (SAMBA)  
1 26410U 00041A   21219.49260395 -.00000003  00000-0  00000-0 0  9995
2 26410 132.9984 344.9267 5004599 193.1459 359.2215  0.44207771 12439
CLUSTER II-FM6 (SALSA)  
1 26411U 00041B   21219.48768837  .00000011  00000-0  00000-0 0  9997
2 26411 133.9546 346.9584 6526090 197.8350 359.1832  0.44217651 12472
CLUSTER II-FM5 (RUMBA)  
1 26463U 00045A   21219.49088761  .00000078  00000-0  00000-0 0  9993
2 26463 137.5784 347.0087 6076505 198.2027 359.2100  0.44217510 12361
CLUSTER II-FM8 (TANGO)  
1 26464U 00045B   21219.49201865 -.00000003  00000-0  00000-0 0  9995
2 26464 132.9934 344.9201 5002653 193.1293 359.2346  0.44219874 12449
ODIN                    
1 26702U 01007A   21218.29221018  .00000198  00000-0  16659-4 0  9993
2 26702  97.5360 233.9157 0009065 293.2934  66.7340 15.08596161118740
TIMED                   
1 26998U 01055B   21218.28617166  .00000092  00000-0  14028-4 0  9996
2 26998  74.0720 187.3041 0001495 227.3427 132.7628 14.88329395 66111
RHESSI                  
1 27370U 02004A   21218.19412657  .00002873  00000-0  85647-4 0  9998
2 27370  38.0322 153.2919 0009853 138.7769 221.3748 15.35398858 78046
INTEGRAL                
1 27540U 02048A   21215.83031893  .00000397  00000-0  00000-0 0  9997
2 27540  65.7062  81.0427 8989609 299.7299   1.6408  0.37574741 19966
CORIOLIS                
1 27640U 03001A   21218.27983559  .00000012  00000-0  26553-4 0  9993
2 27640  98.7213 227.2818 0013045 285.6812  85.1483 14.19077747962278
SORCE                   
1 27651U 03004A   21218.28150186  .00000109  00000-0  25462-4 0  9996
2 27651  39.9945 176.2970 0021691  56.5312 303.7547 14.89341022  6060
MOST                    
1 27843U 03031D   21218.25220205 -.00000002  00000-0  19371-4 0  9991
2 27843  98.7084 225.4835 0009640 343.9213  16.1657 14.20641547938498
SCISAT 1                
1 27858U 03036A   21218.03574275  .00000039  00000-0  10503-4 0  9994
2 27858  73.9325  86.7275 0008456 205.9462 154.1289 14.77362730968842
SWIFT                   
1 28485U 04047A   21218.07033037  .00001002  00000-0  37529-4 0  9992
2 28485  20.5581   1.4322 0010855 263.8288  96.0909 15.05070423915957
FORMOSAT-3 FM6          
1 29047U 06011A   21218.30502332  .00000045  00000-0  33629-4 0  9998
2 29047  71.9800 343.1940 0049028  65.3707 295.2525 14.28834678800542
FORMOSAT-3 FM1          
1 29048U 06011B   21218.33384475  .00000081  00000-0  48292-4 0  9990
2 29048  71.9648 253.5620 0043126  22.6454 337.6572 14.28791031803024
FORMOSAT-3 FM5          
1 29049U 06011C   21218.31238146  .00000062  00000-0  40642-4 0  9992
2 29049  72.0200  67.6169 0033984  46.3508 314.0437 14.28873361798813
FORMOSAT-3 FM3          
1 29050U 06011D   21218.29477880  .00000100  00000-0  31247-4 0  9995
2 29050  72.0157 171.2922 0051719 290.0482  69.5107 14.59096288816816
FORMOSAT-3 FM4          
1 29051U 06011E   21218.37229007  .00000068  00000-0  42272-4 0  9994
2 29051  72.0067 328.7443 0069893 287.1117  72.2373 14.28904771801404
FORMOSAT-3 FM2          
1 29052U 06011F   21218.20150591  .00000043  00000-0  33025-4 0  9997
2 29052  72.0342  44.5364 0040192   4.5480 355.6014 14.29015797798903
CLOUDSAT                
1 29107U 06016A   21218.35235849  .00000077  00000-0  24330-4 0  9995
2 29107  98.2815 171.4822 0004727 173.2191 186.9075 14.63393270812963
CALIPSO                 
1 29108U 06016B   21218.31915227  .00000114  00000-0  31922-4 0  9994
2 29108  98.2786 171.2063 0001388  77.5074 282.6283 14.62574229812950
HINODE (SOLAR-B)        
1 29479U 06041A   21218.30191507  .00000081  00000-0  24343-4 0  9991
2 29479  98.1348 232.2834 0020173 134.7735 225.5113 14.64576951794628
SJ-6C                   
1 29505U 06046A   21218.55825634  .00000770  00000-0  75316-4 0  9999
2 29505  97.7996 236.4857 0006471  91.3179 268.8778 14.95213935805633
SJ-6D                   
1 29506U 06046B   21218.50693483 -.00000613  00000-0 -52658-4 0  9992
2 29506  97.8198 236.6584 0002465 143.4046 216.7335 14.93623173805121
AGILE                   
1 31135U 07013A   21217.28254716  .00002812  00000-0  48678-4 0  9992
2 31135   2.4666 195.1902 0011320 171.1370 188.8884 15.33788737428273
AIM                     
1 31304U 07015A   21218.28590613  .00001087  00000-0  62795-4 0  9991
2 31304  97.8641 121.6410 0005920  33.5045 326.6560 15.14578604783455
FGRST (GLAST)           
1 33053U 08029A   21217.52850494  .00000515  00000-0  12573-4 0  9996
2 33053  25.5816 160.1006 0012559 120.3039 239.8740 15.11561043725832
WISE                    
1 36119U 09071A   21218.10521032  .00001110  00000-0  39478-4 0  9993
2 36119  97.2808 253.7514 0002745  28.3036 331.8354 15.31061108647227
SDO                     
1 36395U 10005A   21217.21993840 -.00000092  00000-0  00000-0 0  9993
2 36395  31.0525 114.4021 0000733 344.0946 192.3908  1.00269420 42248
CRYOSAT 2               
1 36508U 10013A   21218.35913948  .00000029  00000-0  65264-5 0  9992
2 36508  92.0119 207.8657 0003888 221.2679 138.8235 14.51908168600411
X-SAT                   
1 37389U 11015C   21218.45920280 -.00000055  00000-0 -59338-5 0  9997
2 37389  98.3790 261.9988 0014694 150.8271 209.3741 14.24389883535367
GCOM-W1 (SHIZUKU)       
1 38337U 12025A   21218.32453451  .00000030  00000-0  16742-4 0  9992
2 38337  98.2101 158.2996 0002210  95.1326  58.0298 14.57109235490426
NUSTAR                  
1 38358U 12031A   21217.27797270  .00001006  00000-0  31045-4 0  9992
2 38358   6.0260 142.4153 0011064  97.5116 262.6270 14.88572181497655
NEOSSAT                 
1 39089U 13009D   21218.27923683  .00000037  00000-0  28353-4 0  9991
2 39089  98.4403  57.1695 0012228 130.8234 229.4014 14.34575798442025
IRIS                    
1 39197U 13033A   21218.24962737  .00000101  00000-0  20939-4 0  9992
2 39197  97.9670  42.0349 0026880 331.2973  28.6757 14.78880205437386
HISAKI (SPRINT-A)       
1 39253U 13049A   21218.31829330  .00000054  00000-0 -11047-4 0  9999
2 39253  29.7182 246.1514 0137339  23.5222 337.1559 13.55248926390323
CASSIOPE                
1 39265U 13055A   21218.31224446  .00003130  00000-0  85738-4 0  9991
2 39265  80.9637 239.7047 0647994 167.3340 194.5055 14.32557131407131
STSAT-3                 
1 39422U 13066G   21218.49203398  .00000462  00000-0  53163-4 0  9992
2 39422  97.4782 235.6697 0021329 250.1797 109.7105 14.89995158418932
SWARM B                 
1 39451U 13067A   21218.30039415  .00000413  00000-0  16481-4 0  9990
2 39451  87.7581 155.7627 0004078  84.3082 275.8628 15.22081577413001
SWARM A                 
1 39452U 13067B   21218.33977783  .00001640  00000-0  32874-4 0  9990
2 39452  87.3636 339.5751 0002575 105.2086 254.9457 15.45834854433241
SWARM C                 
1 39453U 13067C   21218.33973406  .00001637  00000-0  32820-4 0  9996
2 39453  87.3488 339.6880 0002575 105.2176 254.9367 15.45835062433209
BRITE-CA1 (TORONTO)     
1 40020U 14033L   21218.26820987  .00000094  00000-0  24214-4 0  9993
2 40020  97.7464  29.0083 0087062 187.9953 171.9870 14.66756733381454
OCO 2                   
1 40059U 14035A   21218.29204935  .00000026  00000-0  15928-4 0  9996
2 40059  98.2106 159.0099 0001488  79.1684 280.9682 14.57122985377438
BRITE-PL2 (HEWELIUSZ)   
1 40119U 14049B   21218.23429597  .00000136  00000-0  22497-4 0  9996
2 40119  97.8891 312.2007 0017158 188.6024 171.4899 14.84680542377238
RESURS P2               
1 40360U 14087A   21218.60203375  .00001113  00000-0  35691-4 0  9997
2 40360  97.2284 305.0615 0010589 131.6387 335.7316 15.34388035369959
MMS 1                   
1 40482U 15011C   21216.33446953 -.00002145  00000-0  00000-0 0  9998
2 40482  33.6423 115.8707 8439305  35.3773  46.3383  0.28535625 12400
MMS 2                   
1 40483U 15011A   21207.35416667 -.00001816  00000-0  00000-0 0  9994
2 40483  33.6722 116.1551 8444530  34.9452 204.2856  0.28453600 12434
MMS 3                   
1 40484U 15011C   21207.35416667 -.00001814  00000-0  00000-0 0  9993
2 40484  33.6518 116.1461 8439788  34.9746 204.2805  0.28447874 12118
MMS 4                   
1 40485U 15011D   21207.35416667 -.00001816  00000-0  00000-0 0  9996
2 40485  33.6704 116.1732 8445755  34.9428 204.2538  0.28453560 12320
ASTROSAT                
1 40930U 15052A   21218.28782739  .00000737  00000-0  14381-4 0  9997
2 40930   5.9964 265.2918 0008648  13.1684 346.8669 14.76384590316518
DAMPE                   
1 41173U 15078A   21218.48408166  .00000131  00000-0  82944-5 0  9995
2 41173  97.3516 209.6919 0012259 224.9365 253.7800 15.24033943313607
PISAT                   
1 41784U 16059B   21218.14211690  .00000098  00000-0  27541-4 0  9993
2 41784  97.9634 267.9918 0033334  86.0076 274.4937 14.63645937259560
HXMT (HUIYAN)           
1 42758U 17034A   21218.55687931  .00000299  00000-0  32040-4 0  9992
2 42758  43.0176 278.0987 0007265 114.1417  26.9423 15.09257077228583
FLYING LAPTOP           
1 42831U 17042G   21218.54873470 -.00000114  00000-0 -61848-5 0  9994
2 42831  97.4655  85.6448 0013526 347.0670  13.0171 14.91326461221156
PICSAT                  
1 43132U 18004X   21218.15688147  .00001673  00000-0  67684-4 0  9992
2 43132  97.4074 292.2550 0009946  41.8869 318.3129 15.26080483198265
ZHANGZHENG-1 (CSES)     
1 43194U 18015C   21218.58304574  .00001508  00000-0  71136-4 0  9992
2 43194  97.4845 345.6025 0014220  94.9943 321.5417 15.20945503194766
ICON                    
1 44628U 19068A   21218.24910022  .00000481  00000-0  26608-4 0  9991
2 44628  26.9883 206.8949 0019057 157.1039 203.0371 14.91987340 99435
SALSAT                  
1 46495U 20068K   21218.64253609  .00001013  00000-0  78724-4 0  9990
2 46495  97.6933 155.8441 0015700 263.4415  96.5025 15.03504896 46876
